C/2019 L2 (NEOWISE),e,152.2051,12.5535,18.7973,24.92844,0.0079188,0.93484950,9.0380,05/17.0/2022,2000,g 16.0,4.0
# From MPEC 2021-Y10
P/2019 LD2 (ATLAS),e,11.6205,179.5918,121.6857,5.241106,0.0821428,0.12779065,64.5313,05/17.0/2022,2000,g  8.5,4.0
# From MPEC 2022-J42
C/2019 L3 (ATLAS),h,01/09.6173/2022,48.3590,290.7896,171.6100,1.001690,3.554455,2000,4.5,4.0
# From MPC118095
C/2019 LB7 (Kleyna),e,164.2916,3.8891,336.4970,34.55953,0.0048512,0.92805602,5.5671,05/17.0/2022,2000,g 17.0,4.0
# From MPC118843
P/2019 M2 (ATLAS),e,12.2780,307.6083,332.5768,3.027873,0.1870672,0.64781559,198.2161,05/17.0/2022,2000,g 21.2,4.0
# From MPC118095
C/2019 M3 (ATLAS),h,01/01.6900/2019,99.4848,154.9098,87.8825,1.000033,2.419592,2000,12.2,4.0
# From MPEC 2022-C56
C/2019 N1 (ATLAS),e,82.4288,13.5744,193.4423,3192,0.0000055,0.99946577,0.0000,12/01.6926/2020,2000,g  7.5,4.0
# From MPEC 2022-A21
C/2019 NJ3 (Lemmon),h,10/22.6778/2020,99.4361,142.4578,246.8898,1.001880,4.362456,2000,9.0,4.0
# From MPEC 2022-HC2
A/2019 O2,e,93.2970,48.2796,129.6621,57.51026,0.0022599,0.83163592,359.2638,05/17.0/2022,2000,g  9.5,2.0
# From MPEC 2022-J42
C/2019 O3 (Palomar),h,03/09.0471/2021,89.8192,300.3947,60.1033,1.003763,8.820129,2000,3.5,4.0
# From MPEC 2021-P47
A/2019 O4,e,115.0963,354.9078,61.8805,33.10927,0.0051734,0.88987104,4.2762,05/17.0/2022,2000,g 15.5,2.0
# From MPEC 2021-N06
C/2019 Q1 (Lemmon),h,07/20.2670/2020,155.7252,42.4724,56.1466,1.000132,4.999890,2000,8.5,4.0
# From MPC117072
A/2019 Q2,e,159.0302,188.0088,176.3306,57.35649,0.0022690,0.97803023,0.0000,07/22.0420/2019,2000,g 18.0,2.0
# From MPC117072
C/2019 Q3 (PANSTARRS),h,08/21.5461/2018,65.5273,151.3245,152.7576,1.003132,7.260612,2000,8.5,4.0
# From MPC117072
P/2019 S2 (PANSTARRS),e,10.4697,93.1395,217.0734,4.740074,0.0955051,0.20634777,112.6530,05/17.0/2022,2000,g 13.5,4.0
# From MPEC 2022-CN4
P/2019 S3 (PANSTARRS),e,8.6948,150.1607,213.0119,3.415342,0.1561539,0.47120908,155.2681,05/17.0/2022,2000,g 18.3,4.0
# From MPEC 2021-S45
C/2019 S4 (Lemmon),e,92.0482,63.1534,71.3689,230.5490,0.0002816,0.98506821,0.0000,04/07.9006/2020,2000,g 11.0,4.0
# From MPEC 2022-HC2
A/2019 T1,e,120.8754,6.9456,91.0650,38.50963,0.0041243,0.88880555,2.0103,05/17.0/2022,2000,g 13.0,2.0
# From MPEC 2022-J42
C/2019 T2 (Lemmon),e,111.4883,155.6435,239.4137,2480,0.0000080,0.99893283,0.0000,04/22.3741/2021,2000,g  9.0,4.0
# From MPEC 2022-C56
C/2019 T3 (ATLAS),e,121.8537,139.5279,112.3828,3553,0.0000047,0.99832550,0.0000,03/03.7272/2021,2000,g  6.8,4.0
# From MPEC 2022-J42
C/2019 T4 (ATLAS),e,53.6285,199.9391,351.2014,1009,0.0000307,0.99579614,0.0000,06/09.1390/2022,2000,g  5.0,4.0
# From MPEC 2021-P47
P/2019 T5 (ATLAS),e,33.4567,247.6490,189.5624,7.995791,0.0435925,0.80924181,44.4507,05/17.0/2022,2000,g 15.0,4.0
# From MPEC 2021-P47
P/2019 T6 (PANSTARRS),e,18.6965,71.2593,328.9378,5.435706,0.0777714,0.62287446,71.6192,05/17.0/2022,2000,g 15.5,4.0
# From MPC118096
P/2019 U4 (PANSTARRS),e,11.6979,200.0022,180.9952,3.520413,0.1492154,0.47586633,144.9059,05/17.0/2022,2000,g 19.0,4.0
# From MPEC 2022-J42
C/2019 U5 (PANSTARRS),h,03/29.9763/2023,113.5207,2.6378,181.5229,1.001271,3.623737,2000,4.5,4.0
# From MPEC 2022-H04
C/2019 U6 (Lemmon),e,60.9944,235.7170,329.6332,369.0571,0.0001390,0.99752260,0.0000,06/18.6412/2020,2000,g 10.0,4.0
# From MPC119998
C/2019 V1 (Borisov),e,61.8757,83.1840,51.1717,1437,0.0000181,0.99784583,0.0000,07/16.3843/2020,2000,g 11.0,4.0
# From MPEC 2022-HC2
P/2019 V2 (Groeller),e,11.8076,189.1827,335.8940,7.505714,0.0479310,0.33126702,27.5772,05/17.0/2022,2000,g 10.0,4.0
# From MPC119998
P/2019 W1 (PANSTARRS),e,23.4697,35.3805,18.6869,4.549566,0.1015662,0.26673558,112.2210,05/17.0/2022,2000,g 12.9,4.0
# From MPEC 2021-P47
P/2019 X1 (Pruyne),e,10.2477,43.6736,36.7857,6.173101,0.0642612,0.30320457,66.2313,05/17.0/2022,2000,g 10.4,4.0
# From MPC119999
C/2019 Y1 (ATLAS),e,73.3200,31.5386,57.9428,85.80301,0.0012401,0.99031956,0.0000,03/15.6763/2020,2000,g 13.7,4.0
# From MPEC 2020-L06
C/2019 Y4 (ATLAS),h,05/31.0398/2020,45.7787,120.9578,177.2814,1.001406,0.252006,2000,11.6,6.0
# From MPEC 2020-L06
C/2019 Y4-A (ATLAS),h,05/31.0398/2020,45.7787,120.9578,177.2814,1.001406,0.252006,2000,11.6,6.0
# From MPEC 2020-L06
C/2019 Y4-B (ATLAS),e,45.4135,120.6534,177.4144,1447,0.0000179,0.99982479,0.0000,05/31.0179/2020,2000,g 12.8,6.0
# From MPEC 2020-L06
C/2019 Y4-C (ATLAS),h,05/30.9967/2020,45.5608,120.6839,177.3149,1.002126,0.253064,2000,12.7,6.0
# From MPEC 2020-L06
C/2019 Y4-D (ATLAS),e,45.6032,121.0627,177.4527,68.31115,0.0017457,0.99630466,0.0000,05/31.1173/2020,2000,g 12.5,6.0
# From MPEC 2021-P47
C/2019 Y5 (PANSTARRS),e,82.7898,51.7703,303.5252,800.8770,0.0000435,0.99386162,0.0000,08/18.2085/2019,2000,g 11.0,4.0
# From MPEC 2022-HC2
A/2020 A1,e,149.0398,119.2565,302.5808,25.51563,0.0076471,0.93464005,6.8542,05/17.0/2022,2000,g 18.0,2.0
# From MPEC 2020-L06
C/2020 A2 (Iwamoto),e,120.7029,286.3540,68.1574,1336,0.0000202,0.99926968,0.0000,01/08.5206/2020,2000,g 13.5,4.0
# From MPEC 2020-L06
C/2020 A3 (ATLAS),h,07/29.8353/2019,146.7666,120.3858,271.1574,1.026079,5.837328,2000,8.0,4.0
# From MPEC 2020-L06
C/2020 B3 (Rankin),e,20.7102,185.8465,324.9850,1051,0.0000289,0.99682178,0.0000,10/19.4333/2019,2000,g 13.0,4.0
# From MPEC 2022-H04
P/2020 B4 (Sheppard),e,11.6086,185.9794,342.2419,7.967174,0.0438276,0.19170330,7.7217,05/17.0/2022,2000,g 10.5,4.0
# From MPEC 2022-J42
C/2020 F2 (ATLAS),h,07/15.8201/2022,163.5842,250.2700,48.3590,1.004993,8.817106,2000,4.5,4.0
# From MPEC 2021-O56
C/2020 F3 (NEOWISE),e,129.0090,61.0344,37.3128,342.1101,0.0001558,0.99913707,0.0000,07/03.6098/2020,2000,g  7.5,5.2
# From MPEC 2022-CN4
C/2020 F5 (MASTER),e,52.2846,350.5284,310.8061,281.3924,0.0002088,0.98463587,0.0000,03/20.0527/2021,2000,g  6.5,3.2
# From MPEC 2020-L06
C/2020 F6 (PANSTARRS),e,174.5829,207.9030,344.6129,413.5631,0.0001172,0.99151347,0.0000,04/11.7679/2020,2000,g 14.5,2.8
# From MPEC 2022-HC2
C/2020 F7 (Lemmon),e,93.9516,321.8840,227.9613,650.1020,0.0000595,0.99179809,0.0000,11/13.9232/2021,2000,g  7.0,4.0
# From MPEC 2020-KB7
C/2020 F8 (SWAN),e,110.7242,259.9504,68.1688,265.4266,0.0002279,0.99838128,0.0000,05/27.5634/2020,2000,g 10.0,4.0
# From MPEC 2020-L06
P/2020 G1 (Pimentel),e,18.4913,240.1035,207.6259,3.609090,0.1437499,0.86004218,113.6548,05/17.0/2022,2000,g 17.0,4.0
# From MPEC 2020-L06
C/2020 H2 (Pruyne),e,124.9932,277.6535,26.7009,192.6146,0.0003687,0.99567527,0.0000,04/27.7289/2020,2000,g 18.0,4.0
# From MPEC 2020-HM1
C/2020 H3 (Wierzchos),p,06/05.7162/2020,62.5292,30.4456,2.300288,270.6227,2000,13.5,4.0
# From MPEC 2020-L06
C/2020 H4 (Leonard),e,84.5083,307.7168,117.5676,47.97480,0.0029661,0.98070192,0.0000,08/29.5748/2020,2000,g 15.0,3.2
# From MPEC 2022-J42
C/2020 H5 (Robinson),e,70.2422,210.6282,326.3859,3478,0.0000048,0.99731360,0.0000,12/11.6127/2020,2000,g  5.0,4.0
# From MPEC 2022-J42
C/2020 H6 (ATLAS),h,10/01.0235/2021,79.9741,213.7113,20.3411,1.000392,4.702835,2000,8.0,3.2
# From MPEC 2020-KB7
C/2020 H7 (Lemmon),e,135.9235,323.5194,82.6780,1405,0.0000187,0.99685380,0.0000,06/02.9510/2020,2000,g 11.0,4.0
# From MPEC 2021-N06
C/2020 H8 (PANSTARRS),e,99.6628,68.4118,128.9477,591.1598,0.0000686,0.99209027,0.0000,06/04.4847/2020,2000,g 10.5,4.0
# From MPEC 2022-ED3
A/2020 H9,e,137.8732,213.1589,312.8663,369.0505,0.0001390,0.99301546,0.0000,12/21.3533/2019,2000,g 18.0,2.0
# From MPEC 2022-J42
C/2020 J1 (SONEAR),h,04/18.6439/2021,142.3004,226.5884,341.7628,1.000665,3.355118,2000,8.5,3.2
# From MPEC 2022-J42
C/2020 K1 (PANSTARRS),e,89.6618,94.3570,213.9766,29417,0.0000002,0.99989552,0.0000,05/09.0669/2023,2000,g  5.5,4.0
# From MPEC 2021-N06
C/2020 K2 (PANSTARRS),h,08/06.0717/2020,91.0369,288.3645,67.3366,1.003607,8.879295,2000,10.8,4.0
# From MPEC 2020-KF9
C/2020 K3 (Leonard),p,06/01.0032/2020,129.0152,64.4924,1.583069,28.3546,2000,14.5,4.0
# From MPEC 2020-L06
C/2020 K4 (PANSTARRS),e,125.5747,264.1336,308.8262,23.92066,0.0084245,0.92666021,6.7756,05/17.0/2022,2000,g 16.5,4.0
# From MPEC 2021-R75
C/2020 K5 (PANSTARRS),h,06/05.5691/2021,67.1446,86.1666,249.5965,1.001483,1.535893,2000,11.0,4.0
# From MPEC 2022-J42
C/2020 K6 (Rankin),h,09/15.6870/2021,103.6470,291.5320,44.3191,1.003359,5.868568,2000,8.0,4.0
# From MPEC 2021-S45
C/2020 K7 (PANSTARRS),e,32.0394,286.0677,358.2525,100.8002,0.0009739,0.93660263,0.9069,05/17.0/2022,2000,g  8.0,4.0
# From MPEC 2021-P47
C/2020 K8 (Catalina-ATLAS),h,09/14.5873/2020,31.4282,181.5428,259.9923,1.000149,0.473471,2000,15.0,3.2
# From MPEC 2021-BE3
P/2020 K9 (Lemmon-PANSTARRS),e,23.2099,166.2392,196.9523,4.200219,0.1144975,0.32140890,52.5428,05/17.0/2022,2000,g 12.5,4.0
# From MPEC 2021-U31
P/2020 M1 (PANSTARRS),e,8.5804,142.7535,72.2898,5.310345,0.0805416,0.47738797,70.0064,05/17.0/2022,2000,g 14.5,4.0
# From MPEC 2022-H30
C/2020 M3 (ATLAS),e,23.4721,71.2130,328.4845,26.96681,0.0070382,0.95298072,3.9997,05/17.0/2022,2000,g 14.5,4.0
# From MPEC 2022-CN4
A/2020 M4,h,11/24.1757/2020,160.1278,348.6211,104.6556,1.000407,5.952627,2000,14.5,2.0
# From MPEC 2022-J42
C/2020 M5 (ATLAS),h,08/19.8738/2021,93.2251,352.0938,126.3334,1.000318,3.004178,2000,9.0,4.0
# From MPEC 2022-GA9
C/2020 N1 (PANSTARRS),h,03/12.2211/2021,29.7067,279.9655,186.7577,1.000450,1.320055,2000,12.5,4.0
# From MPEC 2021-P47
C/2020 N2 (ATLAS),e,161.0353,257.1098,331.2852,103.3762,0.0009377,0.98264213,0.0000,08/23.8158/2020,2000,g 16.0,3.2
# From MPEC 2020-SI8
P/2020 O1 (Lemmon-PANSTARRS),e,5.2259,175.9744,104.5302,2.644871,0.2291381,0.11925565,170.6023,05/17.0/2022,2000,g 15.5,4.0
# From MPEC 2022-J42
C/2020 O2 (Amaral),h,08/28.6526/2021,71.7525,256.7586,10.3148,1.002274,4.862382,2000,8.0,3.2
# From MPEC 2020-SI8
P/2020 O3 (PANSTARRS),e,8.4428,266.8230,81.5752,4.649630,0.0983052,0.10372970,46.3938,05/17.0/2022,2000,g 12.0,4.0
# From MPEC 2021-BE3
C/2020 P1 (NEOWISE),h,10/20.2296/2020,45.1066,53.5099,8.8872,1.000273,0.341580,2000,14.0,3.2
# From MPEC 2022-HC2
C/2020 P3 (ATLAS),h,04/20.9180/2021,61.8870,19.4707,82.2543,1.000065,6.812334,2000,6.0,4.0
# From MPEC 2022-J42
